P/2016 P5 (COIAS),e,7.0394,185.3603,33.6236,4.699080,0.0967575,0.05752997,102.6460,04/15.0/2026,2000,g 13.2,4.0
# From MPEC 2026-E44
C/2016 Q2 (PANSTARRS),h,05/10.7791/2021,109.3076,322.3544,84.5112,1.001483,7.080324,2000,6.0,4.0
# From MPEC 2026-E44
C/2016 Q4 (Kowalski),e,7.2367,271.2789,100.0285,17.04409,0.0140069,0.58181208,41.9713,04/15.0/2026,2000,g  7.0,4.0
# From MPEC 2026-E44
C/2016 R2 (PANSTARRS),e,58.3907,80.4904,33.1704,581.9704,0.0000702,0.99553837,0.0000,05/12.0031/2018,2000,g  7.0,4.0
# From MPEC 2026-E44
P/2016 R4 (Gibbs),e,10.8595,168.2275,174.0789,5.340399,0.0798626,0.47442183,284.1607,04/15.0/2026,2000,g 12.5,4.0
# From MPEC 2026-E44
C/2016 X1 (Lemmon),e,26.4645,256.3113,224.6763,3910,0.0000040,0.99806476,0.0000,05/01.9566/2019,2000,g  6.0,4.0
# From MPEC 2026-E44
C/2017 AB5 (PANSTARRS),h,02/20.2523/2018,32.4387,42.6082,78.4349,1.000722,9.213881,2000,5.5,4.0
# From MPEC 2026-E44
C/2017 B3 (LINEAR),e,54.2574,2.2918,284.6897,2600,0.0000074,0.99848835,0.0000,01/29.7427/2019,2000,g  6.0,4.0
# From MPEC 2026-FR0
P/2017 B4 (PANSTARRS),e,21.0570,119.4718,11.4240,4.364019,0.1081121,0.35462359,14.5042,04/15.0/2026,2000,g 14.5,4.0
# From MPEC 2026-E44
P/2017 D1 (Fuls),e,20.7718,82.1834,8.1494,4.819628,0.0931502,0.43775682,332.8811,04/15.0/2026,2000,g 14.0,4.0
# From MPEC 2026-E44
C/2017 E3 (PANSTARRS),h,06/06.8762/2017,70.6662,220.7479,334.1478,1.004246,5.899489,2000,6.5,4.0
# From MPEC 2026-E44
C/2017 F2 (PANSTARRS),h,11/26.9624/2017,42.5340,38.6489,134.7573,1.002116,6.898959,2000,7.5,4.0
# From MPEC 2026-E44
P/2017 FL36 (PANSTARRS),e,15.7009,313.4556,90.8140,2.929153,0.1966034,0.03422343,48.3729,04/15.0/2026,2000,g 14.7,4.0
# From MPEC 2026-E44
C/2017 K1 (PANSTARRS),e,154.0278,225.6881,4.0991,1098332,0.0000000,0.99999339,0.0000,03/12.7603/2018,2000,g  7.0,4.0
# From MPEC 2026-FR0
C/2017 K2 (PANSTARRS),e,87.6410,88.2219,236.1484,1160,0.0000249,0.99844860,0.0000,12/17.9284/2022,2000,g  1.5,4.0
# From MPEC 2026-E44
C/2017 K5 (PANSTARRS),h,03/24.5097/2020,82.2860,102.4472,171.8689,1.002757,7.668649,2000,5.0,4.0
# From MPEC 2026-E44
C/2017 M4 (ATLAS),e,105.6433,65.9787,167.3396,29430,0.0000002,0.99989021,0.0000,01/17.3182/2019,2000,g  6.0,4.0
# From MPEC 2026-E44
C/2017 M5 (TOTAS),h,05/30.5258/2018,15.8711,216.3030,92.7716,1.001827,6.007654,2000,6.5,4.0
# From MPEC 2026-E44
P/2017 P1 (PANSTARRS),e,7.6886,221.3524,122.9389,7.919114,0.0442272,0.30855927,126.4660,04/15.0/2026,2000,g 10.0,4.0
# From MPEC 2026-E44
C/2017 S7 (Lemmon),h,05/25.9225/2017,124.2279,262.6567,187.7744,1.000107,7.643356,2000,7.0,4.0
# From MPEC 2026-E44
P/2017 S8 (PANSTARRS),e,29.8437,191.4740,254.9783,2.778321,0.2128288,0.39116049,278.1316,04/15.0/2026,2000,g 16.0,4.0
# From MPEC 2026-E44
C/2017 T2 (PANSTARRS),e,57.2596,64.3928,92.7773,1751,0.0000134,0.99908577,0.0000,05/06.7416/2020,2000,g  5.0,4.0
# From MPEC 2026-E44
P/2017 TW13 (Lemmon),e,44.8844,322.0460,120.1062,7.139258,0.0516683,0.71039264,147.3607,04/15.0/2026,2000,g 15.0,2.0
# From MPEC 2026-E44
P/2017 U3 (PANSTARRS),e,15.9267,165.0461,296.6551,4.918298,0.0903612,0.10096075,230.5498,04/15.0/2026,2000,g 11.0,4.0
# From MPEC 2026-E44
C/2017 U4 (PANSTARRS),e,158.2041,245.9387,159.2602,18524,0.0000004,0.99958132,0.0000,09/22.7078/2018,2000,g  7.0,4.0
# From MPEC 2026-E44
C/2017 U7 (PANSTARRS),h,09/16.0523/2019,142.6391,276.3191,326.3468,1.002432,6.411383,2000,8.3,2.0
# From MPEC 2026-E44
P/2017 W3 (Gibbs),e,18.1996,210.0191,327.8073,7.816500,0.0451009,0.50752359,133.8601,04/15.0/2026,2000,g 10.5,4.0
# From MPEC 2026-E44
C/2018 A6 (Gibbs),e,77.1971,340.4949,264.2246,14.99028,0.0169820,0.79898832,41.9512,04/15.0/2026,2000,g  9.0,4.0
# From MPEC 2026-E44
P/2018 H2 (PANSTARRS),e,7.4460,67.5509,119.4194,4.418284,0.1061265,0.53973056,324.2635,04/15.0/2026,2000,g 16.6,2.0
# From MPEC 2021-R75
C/2018 KJ3 (Lemmon),e,136.6242,91.6935,217.4962,628.2257,0.0000626,0.99424307,0.0000,09/07.6704/2019,2000,g 12.2,2.0
# From MPEC 2026-E44
C/2018 N2 (ASASSN),h,11/12.0122/2019,77.4432,25.2699,24.6313,1.002107,3.137927,2000,6.0,4.0
# From MPEC 2026-E44
P/2018 P4 (PANSTARRS),e,23.0634,353.1001,8.5665,6.698095,0.0568561,0.44844177,154.5555,04/15.0/2026,2000,g 12.0,4.0
# From MPEC 2026-E44
C/2018 S2 (TESS),e,64.1182,85.0745,291.0285,14.36255,0.0181074,0.61710544,49.2378,04/15.0/2026,2000,g  7.5,4.0
# From MPEC 2026-E44
C/2018 U1 (Lemmon),e,108.3276,75.5008,180.2887,9027,0.0000011,0.99944807,0.0000,11/01.5824/2021,2000,g  5.0,4.0
# From MPEC 2026-E44
P/2018 VN2 (Leonard),e,18.2552,226.4294,138.9327,4.060219,0.1204703,0.47796957,345.2087,04/15.0/2026,2000,g 15.0,4.0
# From MPEC 2026-E44
A/2018 W3,e,104.8295,251.6704,313.8028,673.4347,0.0000564,0.99364927,0.0000,04/13.2113/2021,2000,g 10.5,2.0
# From MPEC 2026-E44
P/2018 Y2 (Africano),e,11.6973,297.1071,162.4546,7.460435,0.0483680,0.47985929,128.4988,04/15.0/2026,2000,g 11.5,4.0
# From MPEC 2026-E44
P/2019 A2 (ATLAS),e,14.8783,139.3642,324.0075,5.710210,0.0722314,0.38332055,194.8226,04/15.0/2026,2000,g 10.5,4.0
# From MPEC 2026-E44
P/2019 A3 (PANSTARRS),e,15.3601,31.0907,325.5937,3.142262,0.1769459,0.26849232,136.8337,04/15.0/2026,2000,g 16.0,4.0
# From MPEC 2026-E44
P/2019 A4 (PANSTARRS),e,13.3069,119.2264,343.5227,2.613881,0.2332251,0.08752590,264.9909,04/15.0/2026,2000,g 15.0,4.0
# From MPEC 2026-E44
C/2019 A5 (PANSTARRS),e,67.5567,146.4832,355.9041,21.53936,0.0098595,0.70671612,24.6804,04/15.0/2026,2000,g  9.5,4.0
# From MPEC 2026-E44
P/2019 B2 (Groeller),e,16.9481,175.5664,0.4369,3.935049,0.1262638,0.35784109,320.2203,04/15.0/2026,2000,g 14.5,4.0
# From MPEC 2026-E44
C/2019 B3 (PANSTARRS),e,66.6335,358.3963,263.9955,3067,0.0000058,0.99777269,0.0000,01/19.2387/2021,2000,g  5.5,4.0
# From MPEC 2026-E43
C/2019 E3 (ATLAS),e,84.3289,347.1786,280.7268,7190,0.0000016,0.99856556,0.0000,11/15.8654/2023,2000,g  2.5,4.0
# From MPEC 2026-E44
C/2019 F1 (ATLAS-Africano),e,54.2853,38.6686,251.2596,17899,0.0000004,0.99979850,0.0000,06/20.6746/2021,2000,g  5.5,4.0
# From MPEC 2026-E44
C/2019 K7 (Smith),e,103.4610,308.0511,27.3062,16953,0.0000004,0.99973627,0.0000,06/16.4615/2020,2000,g  6.0,4.0
# From MPEC 2026-E44
P/2019 LD2 (ATLAS),e,11.7169,177.6744,116.0474,5.147177,0.0844016,0.13584957,192.0571,04/15.0/2026,2000,g  8.5,4.0
# From MPEC 2026-E44
C/2019 L3 (ATLAS),h,01/10.2348/2022,48.3472,290.7089,171.8150,1.003508,3.562763,2000,4.5,4.0
# From MPEC 2026-E44
P/2019 LM4 (Palomar),e,36.4101,72.8663,68.2394,5.701088,0.0724048,0.58655486,180.2515,04/15.0/2026,2000,g  9.5,4.0
# From MPEC 2026-E44
C/2019 M4 (TESS),e,65.7129,52.6328,260.3137,15383,0.0000005,0.99940260,0.0000,09/08.2945/2019,2000,g  5.0,4.0
# From MPEC 2026-E44
C/2019 N1 (ATLAS),e,82.6032,13.4770,193.3410,933.4120,0.0000346,0.99817576,0.0000,11/30.4109/2020,2000,g  7.5,4.0
# From MPEC 2026-FR0
A/2019 N2,e,89.5392,276.4129,346.5265,75.08054,0.0015150,0.97439733,0.0000,08/21.4264/2019,2000,g 12.5,2.0
# From MPEC 2026-E44
C/2019 NJ3 (Lemmon),h,10/21.7706/2020,99.3046,142.4923,246.8720,1.001571,4.362336,2000,9.0,4.0
# From MPEC 2026-E44
C/2019 O2 (PANSTARRS),e,93.2811,48.2664,129.5603,58.85730,0.0021827,0.83553611,2.4122,04/15.0/2026,2000,g  5.0,4.0
# From MPEC 2026-E44
C/2019 O3 (Palomar),h,03/07.2187/2021,89.7898,300.4844,60.0693,1.001523,8.819963,2000,3.5,4.0
# From MPEC 2026-E44
C/2019 Q1 (Lemmon),h,07/22.6061/2020,155.7074,42.4777,56.2312,1.002528,4.998264,2000,8.5,4.0
# From MPEC 2026-E44
P/2019 S2 (PANSTARRS),e,10.4619,93.1236,216.9369,4.748099,0.0952630,0.20461850,249.2860,04/15.0/2026,2000,g 13.5,4.0
# From MPEC 2026-E44
P/2019 S3 (PANSTARRS),e,8.6916,150.1077,213.1373,3.413478,0.1562818,0.47060709,18.2486,04/15.0/2026,2000,g 18.3,4.0
# From MPEC 2026-E44
A/2019 T1,e,120.7898,6.9140,90.9378,38.64020,0.0041034,0.88942354,7.8638,04/15.0/2026,2000,g 13.0,2.0
# From MPEC 2026-E44
C/2019 T2 (Lemmon),e,111.3318,155.6497,239.3600,2524,0.0000078,0.99895302,0.0000,04/22.0975/2021,2000,g  9.0,4.0
# From MPEC 2026-FC5
C/2019 T3 (ATLAS),e,121.8910,139.5526,112.4909,6529,0.0000019,0.99908843,0.0000,03/05.1477/2021,2000,g  6.8,4.0
# From MPEC 2026-E44
C/2019 T4 (ATLAS),e,53.6252,199.8688,351.1199,905.2616,0.0000362,0.99532023,0.0000,06/08.8083/2022,2000,g  5.0,4.0
# From MPEC 2026-E44
P/2019 U4 (PANSTARRS),e,11.6986,199.9749,181.1324,3.517628,0.1493926,0.47554541,357.9535,04/15.0/2026,2000,g 19.0,4.0
# From MPEC 2026-E44
C/2019 U5 (PANSTARRS),e,113.5166,2.5891,181.4470,39266,0.0000001,0.99990767,0.0000,03/29.2504/2023,2000,g  4.5,4.0
# From MPEC 2026-E44
P/2019 V2 (Groeller),e,11.8081,189.1082,335.6784,7.495617,0.0480278,0.33220278,96.2852,04/15.0/2026,2000,g 10.0,4.0
# From MPEC 2026-E44
P/2019 W1 (PANSTARRS),e,23.4624,35.3439,18.9343,4.548419,0.1016046,0.26701266,256.9863,04/15.0/2026,2000,g 12.9,4.0
# From MPEC 2026-E44
P/2019 X1 (Pruyne),e,10.2416,43.6526,37.0910,6.181954,0.0641232,0.30349018,157.4849,04/15.0/2026,2000,g 10.4,4.0
# From MPEC 2026-E44
P/2019 X2 (Pan-STARRS),e,15.8984,250.8495,213.5364,3.632891,0.1423395,0.50049273,329.4916,04/15.0/2026,2000,g 18.0,4.0
# From MPEC 2026-E44
C/2020 A3 (ATLAS),e,146.6128,120.7949,268.2159,3073,0.0000058,0.99812763,0.0000,06/25.6213/2019,2000,g  8.0,4.0
# From MPEC 2026-E44
P/2020 B4 (Sheppard),e,11.6012,185.9259,342.1787,7.977629,0.0437415,0.19327722,70.2342,04/15.0/2026,2000,g 10.5,4.0
# From MPEC 2026-E44
C/2020 F2 (ATLAS),h,07/11.8401/2022,163.5903,250.2920,48.2208,1.001326,8.814474,2000,4.5,4.0
# From MPEC 2026-E44
C/2020 F5 (MASTER),e,52.2468,350.5735,310.5529,161.4466,0.0004805,0.97322044,0.0000,03/15.7754/2021,2000,g  6.5,3.2
# From MPEC 2026-E44
C/2020 F7 (Lemmon),e,93.9977,321.8097,228.0180,601.6096,0.0000668,0.99112884,0.0000,11/14.2868/2021,2000,g  7.0,4.0
# From MPEC 2026-E44
P/2020 G1 (Pimentel),e,18.5052,240.1210,207.6186,3.595379,0.1445730,0.86043339,320.4051,04/15.0/2026,2000,g 17.0,4.0
# From MPEC 2026-E44
C/2020 H5 (Robinson),e,70.2072,210.5990,326.2686,7462,0.0000015,0.99874909,0.0000,12/10.1706/2020,2000,g  5.0,4.0
# From MPEC 2026-E44
C/2020 H6 (ATLAS),e,80.0056,213.6641,20.1712,1758,0.0000134,0.99732894,0.0000,09/29.3288/2021,2000,g  8.0,3.2
